{"type": "FeatureCollection", "features": [ {"type": "Feature", "properties": {"norad_id": 66503, "name": "STARLINK-35917", "group": "last-30-days", "lat": -9.633571735386953, "lon": -23.95904853030926, "alt_km": 416.07607604482473, "timestamp": "2025-12-09T05:43:19.509058+00:00", "meta": {"OBJECT_NAME": "STARLINK-35917", "OBJECT_ID": "2025-263U", "EPOCH": "2025-12-08T14:00:01.999872", "MEAN_MOTION": 15.50561937, "ECCENTRICITY": 0.00016903, "INCLINATION": 43, "RA_OF_ASC_NODE": 149.3782, "ARG_OF_PERICENTER": 286.6995, "MEAN_ANOMALY": 206.4484, "EPHEMERIS_TYPE": 0, "CLASSIFICATION_TYPE": "U", "NORAD_CAT_ID": 66503, "ELEMENT_SET_NO": 999, "REV_AT_EPOCH": 496, "BSTAR": 0.00035913324, "MEAN_MOTION_DOT": 0.0002077, "MEAN_MOTION_DDOT": 0}, "tle": {"line1": "1 66503U 25263U   25342.58335648  .00020770  00000+0  35913-3 0  9995", "line2": "2 66503  43.0000 149.3782 0001690 286.6995 206.4484 15.50561937  4963"}}, "geometry": {"type": "Point", "coordinates": [-23.95904853030926, -9.633571735386953]}}, {"type": "Feature", "properties": {"norad_id": 66504, "name": "STARLINK-35916", "group": "last-30-days", "lat": 26.498904345232482, "lon": 179.1527506928195, "alt_km": 440.24438469208144, "timestamp": "2025-12-09T05:43:19.509068+00:00", "meta": {"OBJECT_NAME": "STARLINK-35916", "OBJECT_ID": "2025-263V", "EPOCH": "2025-12-08T20:00:01.999008", "MEAN_MOTION": 15.40631839, "ECCENTRICITY": 0.0001359, "INCLINATION": 43.0006, "RA_OF_ASC_NODE": 149.1431, "ARG_OF_PERICENTER": 278.9747, "MEAN_ANOMALY": 32.6264, "EPHEMERIS_TYPE": 0, "CLASSIFICATION_TYPE": "U", "NORAD_CAT_ID": 66504, "ELEMENT_SET_NO": 999, "REV_AT_EPOCH": 500, "BSTAR": 0.0025078, "MEAN_MOTION_DOT": 0.00105678, "MEAN_MOTION_DDOT": 0}, "tle": {"line1": "1 66504U 25263V   25342.83335647  .00105678  00000+0  25078-2 0  9994", "line2": "2 66504  43.0006 149.1431 0001359 278.9747  32.6264 15.40631839  5009"}}, "geometry": {"type": "Point", "coordinates": [179.1527506928195, 26.498904345232482]}}, {"type": "Feature", "properties": {"norad_id": 66505, "name": "STARLINK-34766", "group": "last-30-days", "lat": -4.465563680334559, "lon": -29.625608828253597, "alt_km": 415.80988862912636, "timestamp": "2025-12-09T05:43:19.509078+00:00", "meta": {"OBJECT_NAME": "STARLINK-34766", "OBJECT_ID": "2025-263W", "EPOCH": "2025-12-08T20:00:01.999008", "MEAN_MOTION": 15.50617033, "ECCENTRICITY": 0.0001802, "INCLINATION": 43.0003, "RA_OF_ASC_NODE": 147.9368, "ARG_OF_PERICENTER": 290.7919, "MEAN_ANOMALY": 151.882, "EPHEMERIS_TYPE": 0, "CLASSIFICATION_TYPE": "U", "NORAD_CAT_ID": 66505, "ELEMENT_SET_NO": 999, "REV_AT_EPOCH": 500, "BSTAR": -0.0013845, "MEAN_MOTION_DOT": -0.00080843, "MEAN_MOTION_DDOT": 0}, "tle": {"line1": "1 66505U 25263W   25342.83335647 -.00080843  00000+0 -13845-2 0  9992", "line2": "2 66505  43.0003 147.9368 0001802 290.7919 151.8820 15.50617033  5001"}}, "geometry": {"type": "Point", "coordinates": [-29.625608828253597, -4.465563680334559]}}, {"type": "Feature", "properties": {"norad_id": 66506, "name": "STARLINK-34765", "group": "last-30-days", "lat": -5.765110240657685, "lon": -28.21731827412391, "alt_km": 415.90728198770194, "timestamp": "2025-12-09T05:43:19.509089+00:00", "meta": {"OBJECT_NAME": "STARLINK-34765", "OBJECT_ID": "2025-263X", "EPOCH": "2025-12-08T20:00:01.999008", "MEAN_MOTION": 15.50606389, "ECCENTRICITY": 0.0001684, "INCLINATION": 43.0003, "RA_OF_ASC_NODE": 147.9327, "ARG_OF_PERICENTER": 291.8928, "MEAN_ANOMALY": 152.6981, "EPHEMERIS_TYPE": 0, "CLASSIFICATION_TYPE": "U", "NORAD_CAT_ID": 66506, "ELEMENT_SET_NO": 999, "REV_AT_EPOCH": 500, "BSTAR": -0.0010211, "MEAN_MOTION_DOT": -0.0005985, "MEAN_MOTION_DDOT": 0}, "tle": {"line1": "1 66506U 25263X   25342.83335647 -.00059850  00000+0 -10211-2 0  9991", "line2": "2 66506  43.0003 147.9327 0001684 291.8928 152.6981 15.50606389  5006"}}, "geometry": {"type": "Point", "coordinates": [-28.21731827412391, -5.765110240657685]}}, {"type": "Feature", "properties": {"norad_id": 66507, "name": "STARLINK-34767", "group": "last-30-days", "lat": -8.356275296867995, "lon": -25.378982826273933, "alt_km": 415.77704761367113, "timestamp": "2025-12-09T05:43:19.509099+00:00", "meta": {"OBJECT_NAME": "STARLINK-34767", "OBJECT_ID": "2025-263Y", "EPOCH": "2025-12-08T20:00:01.999008", "MEAN_MOTION": 15.50577479, "ECCENTRICITY": 0.0001387, "INCLINATION": 43.0001, "RA_OF_ASC_NODE": 147.9215, "ARG_OF_PERICENTER": 272.3236, "MEAN_ANOMALY": 176.1238, "EPHEMERIS_TYPE": 0, "CLASSIFICATION_TYPE": "U", "NORAD_CAT_ID": 66507, "ELEMENT_SET_NO": 999, "REV_AT_EPOCH": 500, "BSTAR": -0.00047688, "MEAN_MOTION_DOT": -0.00028215, "MEAN_MOTION_DDOT": 0}, "tle": {"line1": "1 66507U 25263Y   25342.83335647 -.00028215  00000+0 -47688-3 0  9992", "line2": "2 66507  43.0001 147.9215 0001387 272.3236 176.1238 15.50577479  5000"}}, "geometry": {"type": "Point", "coordinates": [-25.378982826273933, -8.356275296867995]}}, {"type": "Feature", "properties": {"norad_id": 66508, "name": "STARLINK-35608", "group": "last-30-days", "lat": -12.197204928506268, "lon": -21.048865379365058, "alt_km": 416.52744604750114, "timestamp": "2025-12-09T05:43:19.509109+00:00", "meta": {"OBJECT_NAME": "STARLINK-35608", "OBJECT_ID": "2025-263Z", "EPOCH": "2025-12-08T20:00:01.999008", "MEAN_MOTION": 15.50635726, "ECCENTRICITY": 0.0001747, "INCLINATION": 43.0003, "RA_OF_ASC_NODE": 147.9084, "ARG_OF_PERICENTER": 296.9283, "MEAN_ANOMALY": 157.2209, "EPHEMERIS_TYPE": 0, "CLASSIFICATION_TYPE": "U", "NORAD_CAT_ID": 66508, "ELEMENT_SET_NO": 999, "REV_AT_EPOCH": 500, "BSTAR": -0.0015125, "MEAN_MOTION_DOT": -0.00088261, "MEAN_MOTION_DDOT": 0}, "tle": {"line1": "1 66508U 25263Z   25342.83335647 -.00088261  00000+0 -15125-2 0  9990", "line2": "2 66508  43.0003 147.9084 0001747 296.9283 157.2209 15.50635726  5009"}}, "geometry": {"type": "Point", "coordinates": [-21.048865379365058, -12.197204928506268]}}, {"type": "Feature", "properties": {"norad_id": 66509, "name": "STARLINK-35598", "group": "last-30-days", "lat": -17.206999424222804, "lon": -15.072634739240533, "alt_km": 416.4633528388413, "timestamp": "2025-12-09T05:43:19.509119+00:00", "meta": {"OBJECT_NAME": "STARLINK-35598", "OBJECT_ID": "2025-263AA", "EPOCH": "2025-12-08T20:00:01.999008", "MEAN_MOTION": 15.5056082, "ECCENTRICITY": 0.00014, "INCLINATION": 43.0001, "RA_OF_ASC_NODE": 147.8867, "ARG_OF_PERICENTER": 273.8141, "MEAN_ANOMALY": 188.0507, "EPHEMERIS_TYPE": 0, "CLASSIFICATION_TYPE": "U", "NORAD_CAT_ID": 66509, "ELEMENT_SET_NO": 999, "REV_AT_EPOCH": 500, "BSTAR": 0.00011049, "MEAN_MOTION_DOT": 6.141e-05, "MEAN_MOTION_DDOT": 0}, "tle": {"line1": "1 66509U 25263AA  25342.83335647  .00006141  00000+0  11049-3 0  9998", "line2": "2 66509  43.0001 147.8867 0001400 273.8141 188.0507 15.50560820  5004"}}, "geometry": {"type": "Point", "coordinates": [-15.072634739240533, -17.206999424222804]}}, {"type": "Feature", "properties": {"norad_id": 66510, "name": "STARLINK-35600", "group": "last-30-days", "lat": -13.466388813966372, "lon": -19.577789645027575, "alt_km": 416.18782286760234, "timestamp": "2025-12-09T05:43:19.509131+00:00", "meta": {"OBJECT_NAME": "STARLINK-35600", "OBJECT_ID": "2025-263AB", "EPOCH": "2025-12-08T20:00:01.999008", "MEAN_MOTION": 15.50562471, "ECCENTRICITY": 0.0001382, "INCLINATION": 43.0002, "RA_OF_ASC_NODE": 147.9017, "ARG_OF_PERICENTER": 273.9982, "MEAN_ANOMALY": 182.117, "EPHEMERIS_TYPE": 0, "CLASSIFICATION_TYPE": "U", "NORAD_CAT_ID": 66510, "ELEMENT_SET_NO": 999, "REV_AT_EPOCH": 500, "BSTAR": 0.00014645, "MEAN_MOTION_DOT": 8.254e-05, "MEAN_MOTION_DDOT": 0}, "tle": {"line1": "1 66510U 25263AB  25342.83335647  .00008254  00000+0  14645-3 0  9992", "line2": "2 66510  43.0002 147.9017 0001382 273.9982 182.1170 15.50562471  5003"}}, "geometry": {"type": "Point", "coordinates": [-19.577789645027575, -13.466388813966372]}}, {"type": "Feature", "properties": {"norad_id": 66511, "name": "STARLINK-35444", "group": "last-30-days", "lat": -15.958940566368529, "lon": -16.606170484401574, "alt_km": 416.620642835077, "timestamp": "2025-12-09T05:43:19.509144+00:00", "meta": {"OBJECT_NAME": "STARLINK-35444", "OBJECT_ID": "2025-263AC", "EPOCH": "2025-12-08T20:00:01.999008", "MEAN_MOTION": 15.50603475, "ECCENTRICITY": 0.0001599, "INCLINATION": 43.0004, "RA_OF_ASC_NODE": 147.8924, "ARG_OF_PERICENTER": 291.2584, "MEAN_ANOMALY": 168.635, "EPHEMERIS_TYPE": 0, "CLASSIFICATION_TYPE": "U", "NORAD_CAT_ID": 66511, "ELEMENT_SET_NO": 999, "REV_AT_EPOCH": 500, "BSTAR": -0.00049572, "MEAN_MOTION_DOT": -0.0002934, "MEAN_MOTION_DDOT": 0}, "tle": {"line1": "1 66511U 25263AC  25342.83335647 -.00029340  00000+0 -49572-3 0  9991", "line2": "2 66511  43.0004 147.8924 0001599 291.2584 168.6350 15.50603475  5002"}}, "geometry": {"type": "Point", "coordinates": [-16.606170484401574, -15.958940566368529]}}, {"type": "Feature", "properties": {"norad_id": 66512, "name": "STARLINK-35366", "group": "last-30-days", "lat": -18.436423580000678, "lon": -13.52620396734771, "alt_km": 416.82085398776144, "timestamp": "2025-12-09T05:43:19.509157+00:00", "meta": {"OBJECT_NAME": "STARLINK-35366", "OBJECT_ID": "2025-263AD", "EPOCH": "2025-12-08T20:00:01.999008", "MEAN_MOTION": 15.50634841, "ECCENTRICITY": 0.0001594, "INCLINATION": 43.0004, "RA_OF_ASC_NODE": 147.8824, "ARG_OF_PERICENTER": 291.275, "MEAN_ANOMALY": 172.4623, "EPHEMERIS_TYPE": 0, "CLASSIFICATION_TYPE": "U", "NORAD_CAT_ID": 66512, "ELEMENT_SET_NO": 999, "REV_AT_EPOCH": 500, "BSTAR": -0.0014762, "MEAN_MOTION_DOT": -0.0008617, "MEAN_MOTION_DDOT": 0}, "tle": {"line1": "1 66512U 25263AD  25342.83335647 -.00086170  00000+0 -14762-2 0  9998", "line2": "2 66512  43.0004 147.8824 0001594 291.2750 172.4623 15.50634841  5009"}}, "geometry": {"type": "Point", "coordinates": [-13.52620396734771, -18.436423580000678]}}]}